[{"OBJECT_NAME":"IRIDIUM 143","OBJECT_ID":"2018-030K","EPOCH":"2026-03-09T17:00:55.388160","MEAN_MOTION":14.34218064,"ECCENTRICITY":0.00020577,"INCLINATION":86.4015,"RA_OF_ASC_NODE":332.16,"ARG_OF_PERICENTER":91.1443,"MEAN_ANOMALY":268.9989,"EPHEMERIS_TYPE":0,"CLASSIFICATION_TYPE":"U","NORAD_CAT_ID":43258,"ELEMENT_SET_NO":999,"REV_AT_EPOCH":41583,"BSTAR":2.1067696e-5,"MEAN_MOTION_DOT":7.9e-7,"MEAN_MOTION_DDOT":0},{"OBJECT_NAME":"FENGYUN 1C DEB","OBJECT_ID":"1999-025CTH","EPOCH":"2026-03-08T20:13:15.863808","MEAN_MOTION":14.43729253,"ECCENTRICITY":0.00515714,"INCLINATION":99.5437,"RA_OF_ASC_NODE":88.9921,"ARG_OF_PERICENTER":142.1288,"MEAN_ANOMALY":218.3545,"EPHEMERIS_TYPE":0,"CLASSIFICATION_TYPE":"U","NORAD_CAT_ID":32163,"ELEMENT_SET_NO":999,"REV_AT_EPOCH":62218,"BSTAR":0.0009855907,"MEAN_MOTION_DOT":3.351e-5,"MEAN_MOTION_DDOT":0}]
